ONEWEB-0714             
1 54681U 22166AR  26137.06205236 -.00000025  00000+0 -92353-4 0  9998
2 54681  87.9246 250.1721 0002051  94.3416 265.7952 13.21826333167423
ONEWEB-0532             
1 55140U 23004A   26137.12732188  .00000017  00000+0  10441-4 0  9996
2 55140  87.9162  12.0407 0001913  94.6197 265.5153 13.17650870163492
ONEWEB-0533             
1 55141U 23004B   26137.12393262  .00000274  00000+0  72602-3 0  9994
2 55141  87.8971 356.8469 0001987  83.9922 276.1433 13.12445116163988
ONEWEB-0541             
1 55142U 23004C   26137.12952404  .00000177  00000+0  46235-3 0  9999
2 55142  87.8927  27.2335 0001659  83.0416 277.0901 13.11417350161870
ONEWEB-0543             
1 55143U 23004D   26137.13038135  .00000065  00000+0  13175-3 0  9990
2 55143  87.9165 341.6525 0001877  80.1822 279.9522 13.18687194165608
ONEWEB-0544             
1 55144U 23004E   26137.12363203  .00000056  00000+0  10966-3 0  9992
2 55144  87.9167 341.6537 0001670  83.7725 276.3597 13.18685276165608
ONEWEB-0560             
1 55145U 23004F   26137.11688801  .00000035  00000+0  55679-4 0  9994
2 55145  87.9170 341.6439 0001612  79.5725 280.5589 13.18684994165618
ONEWEB-0565             
1 55146U 23004G   26137.11013868  .00000026  00000+0  34387-4 0  9993
2 55146  87.9160 341.6761 0001421  94.3985 265.7310 13.18685481165605
ONEWEB-0567             
1 55147U 23004H   26136.95164286  .00000043  00000+0  76342-4 0  9992
2 55147  87.9166 341.6896 0001462  86.7175 273.4125 13.18685104165581
ONEWEB-0569             
1 55148U 23004J   26137.08000588 -.00000172  00000+0 -50717-3 0  9994
2 55148  87.8954 326.4155 0001038  66.5028 293.6210 13.13471234166095
ONEWEB-0570             
1 55149U 23004K   26137.09498399 -.00000010  00000+0 -58435-4 0  9994
2 55149  87.9165 341.6588 0001861 101.1099 259.0242 13.18687380165599
ONEWEB-0571             
1 55150U 23004L   26137.08823755 -.00000008  00000+0 -51803-4 0  9992
2 55150  87.9167 341.6592 0000629 102.9144 257.2058 13.18687420165601
ONEWEB-0572             
1 55151U 23004M   26137.15769907  .00000050  00000+0  94994-4 0  9992
2 55151  87.9161  12.0354 0001624  85.5886 274.5431 13.17649955163397
ONEWEB-0573             
1 55152U 23004N   26137.08148603  .00000036  00000+0  59351-4 0  9991
2 55152  87.9166 341.6617 0000992 100.0793 260.0451 13.18685755165598
ONEWEB-0588             
1 55153U 23004P   26136.99886521 -.00000001  00000+0 -35480-4 0  9990
2 55153  87.9165 341.6789 0001789 104.4503 255.6827 13.18686027165589
ONEWEB-0598             
1 55154U 23004Q   26137.10747080 -.00000484  00000+0 -14024-2 0  9995
2 55154  87.8918  27.2513 0001162  68.8688 291.2564 13.11418867161824
