[{"OBJECT_NAME":"ONEWEB-0714","OBJECT_ID":"2022-166AR","EPOCH":"2026-05-17T01:29:21.323904","MEAN_MOTION":13.21826333,"ECCENTRICITY":0.0002051,"INCLINATION":87.9246,"RA_OF_ASC_NODE":250.1721,"ARG_OF_PERICENTER":94.3416,"MEAN_ANOMALY":265.7952,"EPHEMERIS_TYPE":0,"CLASSIFICATION_TYPE":"U","NORAD_CAT_ID":54681,"ELEMENT_SET_NO":999,"REV_AT_EPOCH":16742,"BSTAR":-9.2353e-05,"MEAN_MOTION_DOT":-2.5e-07,"MEAN_MOTION_DDOT":0.0},{"OBJECT_NAME":"ONEWEB-0532","OBJECT_ID":"2023-004A","EPOCH":"2026-05-17T03:03:20.610432","MEAN_MOTION":13.1765087,"ECCENTRICITY":0.0001913,"INCLINATION":87.9162,"RA_OF_ASC_NODE":12.0407,"ARG_OF_PERICENTER":94.6197,"MEAN_ANOMALY":265.5153,"EPHEMERIS_TYPE":0,"CLASSIFICATION_TYPE":"U","NORAD_CAT_ID":55140,"ELEMENT_SET_NO":999,"REV_AT_EPOCH":16349,"BSTAR":1.0441e-05,"MEAN_MOTION_DOT":1.7e-07,"MEAN_MOTION_DDOT":0.0},{"OBJECT_NAME":"ONEWEB-0533","OBJECT_ID":"2023-004B","EPOCH":"2026-05-17T02:58:27.778368","MEAN_MOTION":13.12445116,"ECCENTRICITY":0.0001987,"INCLINATION":87.8971,"RA_OF_ASC_NODE":356.8469,"ARG_OF_PERICENTER":83.9922,"MEAN_ANOMALY":276.1433,"EPHEMERIS_TYPE":0,"CLASSIFICATION_TYPE":"U","NORAD_CAT_ID":55141,"ELEMENT_SET_NO":999,"REV_AT_EPOCH":16398,"BSTAR":0.00072602,"MEAN_MOTION_DOT":2.74e-06,"MEAN_MOTION_DDOT":0.0},{"OBJECT_NAME":"ONEWEB-0541","OBJECT_ID":"2023-004C","EPOCH":"2026-05-17T03:06:30.877056","MEAN_MOTION":13.1141735,"ECCENTRICITY":0.0001659,"INCLINATION":87.8927,"RA_OF_ASC_NODE":27.2335,"ARG_OF_PERICENTER":83.0416,"MEAN_ANOMALY":277.0901,"EPHEMERIS_TYPE":0,"CLASSIFICATION_TYPE":"U","NORAD_CAT_ID":55142,"ELEMENT_SET_NO":999,"REV_AT_EPOCH":16187,"BSTAR":0.00046235,"MEAN_MOTION_DOT":1.77e-06,"MEAN_MOTION_DDOT":0.0},{"OBJECT_NAME":"ONEWEB-0543","OBJECT_ID":"2023-004D","EPOCH":"2026-05-17T03:07:44.948640","MEAN_MOTION":13.18687194,"ECCENTRICITY":0.0001877,"INCLINATION":87.9165,"RA_OF_ASC_NODE":341.6525,"ARG_OF_PERICENTER":80.1822,"MEAN_ANOMALY":279.9522,"EPHEMERIS_TYPE":0,"CLASSIFICATION_TYPE":"U","NORAD_CAT_ID":55143,"ELEMENT_SET_NO":999,"REV_AT_EPOCH":16560,"BSTAR":0.00013175,"MEAN_MOTION_DOT":6.5e-07,"MEAN_MOTION_DDOT":0.0},{"OBJECT_NAME":"ONEWEB-0544","OBJECT_ID":"2023-004E","EPOCH":"2026-05-17T02:58:01.807392","MEAN_MOTION":13.18685276,"ECCENTRICITY":0.000167,"INCLINATION":87.9167,"RA_OF_ASC_NODE":341.6537,"ARG_OF_PERICENTER":83.7725,"MEAN_ANOMALY":276.3597,"EPHEMERIS_TYPE":0,"CLASSIFICATION_TYPE":"U","NORAD_CAT_ID":55144,"ELEMENT_SET_NO":999,"REV_AT_EPOCH":16560,"BSTAR":0.00010965999999999999,"MEAN_MOTION_DOT":5.6e-07,"MEAN_MOTION_DDOT":0.0},{"OBJECT_NAME":"ONEWEB-0560","OBJECT_ID":"2023-004F","EPOCH":"2026-05-17T02:48:19.124064","MEAN_MOTION":13.18684994,"ECCENTRICITY":0.0001612,"INCLINATION":87.917,"RA_OF_ASC_NODE":341.6439,"ARG_OF_PERICENTER":79.5725,"MEAN_ANOMALY":280.5589,"EPHEMERIS_TYPE":0,"CLASSIFICATION_TYPE":"U","NORAD_CAT_ID":55145,"ELEMENT_SET_NO":999,"REV_AT_EPOCH":16561,"BSTAR":5.5679e-05,"MEAN_MOTION_DOT":3.5e-07,"MEAN_MOTION_DDOT":0.0},{"OBJECT_NAME":"ONEWEB-0565","OBJECT_ID":"2023-004G","EPOCH":"2026-05-17T02:38:35.981952","MEAN_MOTION":13.18685481,"ECCENTRICITY":0.0001421,"INCLINATION":87.916,"RA_OF_ASC_NODE":341.6761,"ARG_OF_PERICENTER":94.3985,"MEAN_ANOMALY":265.731,"EPHEMERIS_TYPE":0,"CLASSIFICATION_TYPE":"U","NORAD_CAT_ID":55146,"ELEMENT_SET_NO":999,"REV_AT_EPOCH":16560,"BSTAR":3.4387e-05,"MEAN_MOTION_DOT":2.6e-07,"MEAN_MOTION_DDOT":0.0},{"OBJECT_NAME":"ONEWEB-0567","OBJECT_ID":"2023-004H","EPOCH":"2026-05-16T22:50:21.943104","MEAN_MOTION":13.18685104,"ECCENTRICITY":0.0001462,"INCLINATION":87.9166,"RA_OF_ASC_NODE":341.6896,"ARG_OF_PERICENTER":86.7175,"MEAN_ANOMALY":273.4125,"EPHEMERIS_TYPE":0,"CLASSIFICATION_TYPE":"U","NORAD_CAT_ID":55147,"ELEMENT_SET_NO":999,"REV_AT_EPOCH":16558,"BSTAR":7.634200000000001e-05,"MEAN_MOTION_DOT":4.3e-07,"MEAN_MOTION_DDOT":0.0},{"OBJECT_NAME":"ONEWEB-0569","OBJECT_ID":"2023-004J","EPOCH":"2026-05-17T01:55:12.508032","MEAN_MOTION":13.13471234,"ECCENTRICITY":0.0001038,"INCLINATION":87.8954,"RA_OF_ASC_NODE":326.4155,"ARG_OF_PERICENTER":66.5028,"MEAN_ANOMALY":293.621,"EPHEMERIS_TYPE":0,"CLASSIFICATION_TYPE":"U","NORAD_CAT_ID":55148,"ELEMENT_SET_NO":999,"REV_AT_EPOCH":16609,"BSTAR":-0.00050717,"MEAN_MOTION_DOT":-1.72e-06,"MEAN_MOTION_DDOT":0.0},{"OBJECT_NAME":"ONEWEB-0570","OBJECT_ID":"2023-004K","EPOCH":"2026-05-17T02:16:46.616736","MEAN_MOTION":13.1868738,"ECCENTRICITY":0.0001861,"INCLINATION":87.9165,"RA_OF_ASC_NODE":341.6588,"ARG_OF_PERICENTER":101.1099,"MEAN_ANOMALY":259.0242,"EPHEMERIS_TYPE":0,"CLASSIFICATION_TYPE":"U","NORAD_CAT_ID":55149,"ELEMENT_SET_NO":999,"REV_AT_EPOCH":16559,"BSTAR":-5.8435000000000005e-05,"MEAN_MOTION_DOT":-1e-07,"MEAN_MOTION_DDOT":0.0},{"OBJECT_NAME":"ONEWEB-0571","OBJECT_ID":"2023-004L","EPOCH":"2026-05-17T02:07:03.724320","MEAN_MOTION":13.1868742,"ECCENTRICITY":6.29e-05,"INCLINATION":87.9167,"RA_OF_ASC_NODE":341.6592,"ARG_OF_PERICENTER":102.9144,"MEAN_ANOMALY":257.2058,"EPHEMERIS_TYPE":0,"CLASSIFICATION_TYPE":"U","NORAD_CAT_ID":55150,"ELEMENT_SET_NO":999,"REV_AT_EPOCH":16560,"BSTAR":-5.1803e-05,"MEAN_MOTION_DOT":-8e-08,"MEAN_MOTION_DDOT":0.0},{"OBJECT_NAME":"ONEWEB-0572","OBJECT_ID":"2023-004M","EPOCH":"2026-05-17T03:47:05.199648","MEAN_MOTION":13.17649955,"ECCENTRICITY":0.0001624,"INCLINATION":87.9161,"RA_OF_ASC_NODE":12.0354,"ARG_OF_PERICENTER":85.5886,"MEAN_ANOMALY":274.5431,"EPHEMERIS_TYPE":0,"CLASSIFICATION_TYPE":"U","NORAD_CAT_ID":55151,"ELEMENT_SET_NO":999,"REV_AT_EPOCH":16339,"BSTAR":9.4994e-05,"MEAN_MOTION_DOT":5e-07,"MEAN_MOTION_DDOT":0.0},{"OBJECT_NAME":"ONEWEB-0573","OBJECT_ID":"2023-004N","EPOCH":"2026-05-17T01:57:20.392992","MEAN_MOTION":13.18685755,"ECCENTRICITY":9.92e-05,"INCLINATION":87.9166,"RA_OF_ASC_NODE":341.6617,"ARG_OF_PERICENTER":100.0793,"MEAN_ANOMALY":260.0451,"EPHEMERIS_TYPE":0,"CLASSIFICATION_TYPE":"U","NORAD_CAT_ID":55152,"ELEMENT_SET_NO":999,"REV_AT_EPOCH":16559,"BSTAR":5.9351e-05,"MEAN_MOTION_DOT":3.6e-07,"MEAN_MOTION_DDOT":0.0},{"OBJECT_NAME":"ONEWEB-0588","OBJECT_ID":"2023-004P","EPOCH":"2026-05-16T23:58:21.954144","MEAN_MOTION":13.18686027,"ECCENTRICITY":0.0001789,"INCLINATION":87.9165,"RA_OF_ASC_NODE":341.6789,"ARG_OF_PERICENTER":104.4503,"MEAN_ANOMALY":255.6827,"EPHEMERIS_TYPE":0,"CLASSIFICATION_TYPE":"U","NORAD_CAT_ID":55153,"ELEMENT_SET_NO":999,"REV_AT_EPOCH":16558,"BSTAR":-3.548e-05,"MEAN_MOTION_DOT":-1e-08,"MEAN_MOTION_DDOT":0.0},{"OBJECT_NAME":"ONEWEB-0598","OBJECT_ID":"2023-004Q","EPOCH":"2026-05-17T02:34:45.477120","MEAN_MOTION":13.11418867,"ECCENTRICITY":0.0001162,"INCLINATION":87.8918,"RA_OF_ASC_NODE":27.2513,"ARG_OF_PERICENTER":68.8688,"MEAN_ANOMALY":291.2564,"EPHEMERIS_TYPE":0,"CLASSIFICATION_TYPE":"U","NORAD_CAT_ID":55154,"ELEMENT_SET_NO":999,"REV_AT_EPOCH":16182,"BSTAR":-0.0014024,"MEAN_MOTION_DOT":-4.84e-06,"MEAN_MOTION_DDOT":0.0}]